OBJECT_NAME,OBJECT_ID,EPOCH,MEAN_MOTION,ECCENTRICITY,INCLINATION,RA_OF_ASC_NODE,ARG_OF_PERICENTER,MEAN_ANOMALY,EPHEMERIS_TYPE,CLASSIFICATION_TYPE,NORAD_CAT_ID,ELEMENT_SET_NO,REV_AT_EPOCH,BSTAR,MEAN_MOTION_DOT,MEAN_MOTION_DDOT
LEMUR-1,2014-033AL,2026-07-13T21:42:03.832128,14.85334693,.0047876,97.7906,344.1214,352.2056,7.8410,0,U,40044,999,64943,.97231E-4,.797E-5,0
LEMUR-2-GREENBERG,2017-042N,2026-07-14T01:36:51.314112,15.32129917,.000719,97.3821,15.5850,263.7777,96.2646,0,U,42837,999,49250,.31565E-3,.9723E-4,0
LEMUR-2-ANDIS,2017-042P,2026-07-13T23:13:28.061760,15.35893253,.0007167,97.3674,15.7663,263.0855,96.9574,0,U,42838,999,49256,.37818E-3,.13147E-3,0
LEMUR-2-MONSON,2017-042Q,2026-07-13T19:22:56.061984,15.28729745,.0005239,97.4086,15.2572,251.8262,108.2408,0,U,42839,999,49223,.28219E-3,.781E-4,0
LEMUR-2-FURIAUS,2017-042R,2026-07-12T10:41:36.677760,15.31072029,.00062398,97.3775,11.8672,340.6601,19.4403,0,U,42840,999,49207,.35675373E-3,.10642E-3,0
LEMUR-2-PETERG,2017-042S,2026-07-13T23:13:41.947104,15.35000836,.0003225,97.3987,20.0635,225.2776,134.8205,0,U,42841,999,49254,.34182E-3,.11532E-3,0
LEMUR-2-DEMBITZ,2017-042T,2026-07-14T00:48:41.260032,15.31088712,.0005022,97.3822,16.4895,279.7285,80.3388,0,U,42842,999,49245,.33333E-3,.994E-4,0
LEMUR-2-ZACHARY,2017-042W,2026-07-14T02:03:08.921088,15.52645142,.00025,97.3571,27.3393,255.8073,104.2902,0,U,42845,999,49337,.52258E-3,.32159E-3,0
LEMUR-2-AMANDA-SVANTE,2021-034B,2026-07-14T03:32:50.927424,15.35919585,.0004547,97.5756,274.1748,145.2085,214.9456,0,U,48269,999,28519,.5906E-3,.20602E-3,0
LEMUR-2-SPECIAL-K,2021-034F,2026-07-14T04:32:59.620416,15.74373593,.0006229,97.5645,284.1935,216.1059,143.9785,0,U,48273,999,28592,.12453E-2,.18327E-2,0
LEMUR-2-EMBRIONOVIS,2023-084AQ,2026-07-13T22:39:20.545920,15.38209211,.0008216,97.6318,340.1875,211.0081,149.0679,0,U,56970,999,17179,.23099E-3,.8615E-4,0
LEMUR-2-DEVERILL-M-T,2023-100F,2026-07-14T03:02:56.310432,15.41060007,.0004704,99.4457,241.6936,301.5857,58.4923,0,U,57391,999,16539,.41261E-3,.16951E-3,0
LEMUR-2-BASS,2023-174D,2026-07-14T04:17:28.540320,15.43973523,.0007743,97.3851,280.2837,81.4518,278.7607,0,U,58259,999,14952,.24342E-3,.11009E-3,0
LEMUR-2-JK0903EM1407,2023-174CJ,2026-07-13T18:22:50.556288,15.53017919,.0003751,97.3927,286.0103,38.6610,321.4910,0,U,58336,999,14985,.26895E-3,.16696E-3,0
LEMUR-2-MJR092620,2023-174CN,2026-07-14T05:23:55.705056,15.45841290,.0005385,97.3983,285.7696,33.6493,326.5097,0,U,58340,999,14982,.2502E-3,.12057E-3,0
LEMUR-2-NIMBUS2000,2024-022A,2026-07-14T02:23:39.238080,15.41087584,.0008856,97.4081,45.4558,32.3719,327.8069,0,U,58899,999,13641,.33421E-3,.1376E-3,0
LEMUR-2-VALHALLA,2024-022B,2026-07-14T02:30:00.698400,15.40467829,.000932,97.4076,45.4314,27.7934,332.3808,0,U,58900,999,13641,.23972E-3,.9642E-4,0
LEMUR-2-CAEL,2024-022E,2026-07-14T03:44:07.700352,15.41834008,.0007227,97.4060,46.4679,13.4398,346.7040,0,U,58903,999,13649,.2565E-3,.10797E-3,0
LEMUR-2-JOHNNYTRUONG,2024-043BA,2026-07-14T00:01:36.374880,15.62495749,.0004179,97.5386,348.4086,97.5407,262.6325,0,U,59146,999,13222,.30288E-3,.26859E-3,0
LEMUR-2-TOMATOKECHUP,2024-149D,2026-07-14T04:52:01.170048,15.36570045,.0003239,97.3801,277.3271,124.9206,235.2343,0,U,60471,999,10631,.17641E-3,.6215E-4,0
LEMUR-2-STELLA,2024-149BT,2026-07-14T03:32:20.010048,15.12359088,.0001257,97.6740,277.7295,113.1716,246.9647,0,U,60533,999,10457,.33887E-3,.5811E-4,0
LEMUR-2-MARHISYAM,2024-149BW,2026-07-14T04:53:58.024320,15.11766292,.0002605,97.6885,278.2620,70.7561,289.3950,0,U,60536,999,10456,.31582E-3,.5322E-4,0
LEMUR-2-AHMED-ASRAR,2024-149DN,2026-07-14T03:29:33.719424,15.13293141,.0001047,97.7007,280.4023,204.5268,155.5913,0,U,60576,999,10464,.3426E-3,.6031E-4,0
LEMUR-2-LLOYD,2024-149DP,2026-07-14T03:42:25.127136,15.09740347,.0004817,97.6751,276.3054,75.6169,284.5595,0,U,60577,999,10446,.35098E-3,.5599E-4,0
LEMUR-2-SQUIRRELCOMM,2024-149DQ,2026-07-14T03:23:43.840032,15.07441614,.0004154,97.6715,275.9719,333.5710,26.5305,0,U,60578,999,10446,.1918E-3,.2843E-4,0
LEMUR-2-SIERRINI,2024-149DR,2026-07-14T03:59:59.396352,15.11500320,.0006443,97.6848,277.8867,93.4482,266.7484,0,U,60579,999,10453,.38806E-3,.6509E-4,0
LEMUR-2-WILSON,2025-009CP,2026-07-14T04:45:12.531744,14.95275058,.0002088,97.7021,273.1893,330.2954,29.8148,0,U,62694,999,8139,.691E-4,.704E-5,0
LEMUR-2-STAR-FOX,2025-009CR,2026-07-14T04:40:22.251072,15.02833967,.0002314,97.6913,276.6097,46.8798,313.2620,0,U,62696,999,8161,.26864E-3,.3538E-4,0
LEMUR-2-ARIANNA,2025-009CU,2026-07-14T04:38:09.881952,15.02835117,.0002645,97.6852,276.3611,53.7789,306.3680,0,U,62699,999,8161,.27978E-3,.3687E-4,0
LEMUR-2-ALISIA,2025-009DB,2026-07-14T03:58:41.484288,15.03166245,.000414,97.6972,277.1569,131.7262,228.4318,0,U,62706,999,10421,.342E-3,.4562E-4,0
